{"type": "FeatureCollection", "features": [ {"type": "Feature", "properties": {"norad_id": 30252, "name": "FENGYUN 1C DEB", "group": "fengyun-1c-debris", "lat": 13.592313670649354, "lon": -3.2217210658270004, "alt_km": 887.6481516768172, "timestamp": "2025-12-09T18:55:17.506865+00:00", "meta": {"OBJECT_NAME": "FENGYUN 1C DEB", "OBJECT_ID": "1999-025XM", "EPOCH": "2025-12-09T00:22:36.153408", "MEAN_MOTION": 14.09700728, "ECCENTRICITY": 0.00658784, "INCLINATION": 98.7435, "RA_OF_ASC_NODE": 358.1602, "ARG_OF_PERICENTER": 252.294, "MEAN_ANOMALY": 161.7297, "EPHEMERIS_TYPE": 0, "CLASSIFICATION_TYPE": "U", "NORAD_CAT_ID": 30252, "ELEMENT_SET_NO": 999, "REV_AT_EPOCH": 96913, "BSTAR": 0.00061999353, "MEAN_MOTION_DOT": 1.066e-05, "MEAN_MOTION_DDOT": 0}, "tle": {"line1": "1 30252U 99025XM  25343.01569622  .00001066  00000+0  61999-3 0  9994", "line2": "2 30252  98.7435 358.1602 0065878 252.2940 161.7297 14.09700728969132"}}, "geometry": {"type": "Point", "coordinates": [-3.2217210658270004, 13.592313670649354]}}, {"type": "Feature", "properties": {"norad_id": 30253, "name": "FENGYUN 1C DEB", "group": "fengyun-1c-debris", "lat": -15.326580298843714, "lon": -110.31998427532446, "alt_km": 1127.5633804001018, "timestamp": "2025-12-09T18:55:17.506876+00:00", "meta": {"OBJECT_NAME": "FENGYUN 1C DEB", "OBJECT_ID": "1999-025XN", "EPOCH": "2025-12-09T06:02:04.288128", "MEAN_MOTION": 13.73162746, "ECCENTRICITY": 0.0221741, "INCLINATION": 98.752, "RA_OF_ASC_NODE": 71.6082, "ARG_OF_PERICENTER": 50.5688, "MEAN_ANOMALY": 10.4331, "EPHEMERIS_TYPE": 0, "CLASSIFICATION_TYPE": "U", "NORAD_CAT_ID": 30253, "ELEMENT_SET_NO": 999, "REV_AT_EPOCH": 93966, "BSTAR": 0.0024623, "MEAN_MOTION_DOT": 2.682e-05, "MEAN_MOTION_DDOT": 0}, "tle": {"line1": "1 30253U 99025XN  25343.25143852  .00002682  00000+0  24623-2 0  9991", "line2": "2 30253  98.7520  71.6082 0221741  50.5688  10.4331 13.73162746939664"}}, "geometry": {"type": "Point", "coordinates": [-110.31998427532446, -15.326580298843714]}}, {"type": "Feature", "properties": {"norad_id": 30257, "name": "FENGYUN 1C DEB", "group": "fengyun-1c-debris", "lat": 11.794785501972562, "lon": -19.407377190949116, "alt_km": 865.3644063194197, "timestamp": "2025-12-09T18:55:17.506886+00:00", "meta": {"OBJECT_NAME": "FENGYUN 1C DEB", "OBJECT_ID": "1999-025XS", "EPOCH": "2025-12-09T05:31:18.179328", "MEAN_MOTION": 14.09721218, "ECCENTRICITY": 0.0059659, "INCLINATION": 98.7495, "RA_OF_ASC_NODE": 341.8928, "ARG_OF_PERICENTER": 109.0106, "MEAN_ANOMALY": 311.797, "EPHEMERIS_TYPE": 0, "CLASSIFICATION_TYPE": "U", "NORAD_CAT_ID": 30257, "ELEMENT_SET_NO": 999, "REV_AT_EPOCH": 97168, "BSTAR": 0.0002826, "MEAN_MOTION_DOT": 4.62e-06, "MEAN_MOTION_DDOT": 0}, "tle": {"line1": "1 30257U 99025XS  25343.23007152  .00000462  00000+0  28260-3 0  9991", "line2": "2 30257  98.7495 341.8928 0059659 109.0106 311.7970 14.09721218971681"}}, "geometry": {"type": "Point", "coordinates": [-19.407377190949116, 11.794785501972562]}}, {"type": "Feature", "properties": {"norad_id": 30259, "name": "FENGYUN 1C DEB", "group": "fengyun-1c-debris", "lat": -21.826508760608395, "lon": -161.08199173879706, "alt_km": 638.9219109694013, "timestamp": "2025-12-09T18:55:17.506896+00:00", "meta": {"OBJECT_NAME": "FENGYUN 1C DEB", "OBJECT_ID": "1999-025XU", "EPOCH": "2025-12-09T03:02:56.801184", "MEAN_MOTION": 14.51475113, "ECCENTRICITY": 0.02421236, "INCLINATION": 98.7615, "RA_OF_ASC_NODE": 194.687, "ARG_OF_PERICENTER": 279.3022, "MEAN_ANOMALY": 202.5526, "EPHEMERIS_TYPE": 0, "CLASSIFICATION_TYPE": "U", "NORAD_CAT_ID": 30259, "ELEMENT_SET_NO": 999, "REV_AT_EPOCH": 99422, "BSTAR": 0.00061541226, "MEAN_MOTION_DOT": 3.539e-05, "MEAN_MOTION_DDOT": 0}, "tle": {"line1": "1 30259U 99025XU  25343.12704631  .00003539  00000+0  61541-3 0  9994", "line2": "2 30259  98.7615 194.6870 0242123 279.3022 202.5526 14.51475113994221"}}, "geometry": {"type": "Point", "coordinates": [-161.08199173879706, -21.826508760608395]}}, {"type": "Feature", "properties": {"norad_id": 30263, "name": "FENGYUN 1C DEB", "group": "fengyun-1c-debris", "lat": -81.04974131237326, "lon": -168.28798490623956, "alt_km": 910.8596886836513, "timestamp": "2025-12-09T18:55:17.506906+00:00", "meta": {"OBJECT_NAME": "FENGYUN 1C DEB", "OBJECT_ID": "1999-025XY", "EPOCH": "2025-12-09T14:16:45.185088", "MEAN_MOTION": 14.01460172, "ECCENTRICITY": 0.0144781, "INCLINATION": 98.9351, "RA_OF_ASC_NODE": 98.8395, "ARG_OF_PERICENTER": 9.0222, "MEAN_ANOMALY": 6.8359, "EPHEMERIS_TYPE": 0, "CLASSIFICATION_TYPE": "U", "NORAD_CAT_ID": 30263, "ELEMENT_SET_NO": 999, "REV_AT_EPOCH": 95981, "BSTAR": 0.0014607705, "MEAN_MOTION_DOT": 2.374e-05, "MEAN_MOTION_DDOT": 0}, "tle": {"line1": "1 30263U 99025XY  25343.59496742  .00002374  00000+0  14608-2 0  9998", "line2": "2 30263  98.9351  98.8395 0144781   9.0222   6.8359 14.01460172959812"}}, "geometry": {"type": "Point", "coordinates": [-168.28798490623956, -81.04974131237326]}}, {"type": "Feature", "properties": {"norad_id": 30264, "name": "FENGYUN 1C DEB", "group": "fengyun-1c-debris", "lat": 35.26058084701029, "lon": 32.52442359865266, "alt_km": 877.9089623852669, "timestamp": "2025-12-09T18:55:17.506916+00:00", "meta": {"OBJECT_NAME": "FENGYUN 1C DEB", "OBJECT_ID": "1999-025XZ", "EPOCH": "2025-12-09T10:17:57.431616", "MEAN_MOTION": 14.07619125, "ECCENTRICITY": 0.01068989, "INCLINATION": 98.9699, "RA_OF_ASC_NODE": 38.5792, "ARG_OF_PERICENTER": 296.7248, "MEAN_ANOMALY": 78.4008, "EPHEMERIS_TYPE": 0, "CLASSIFICATION_TYPE": "U", "NORAD_CAT_ID": 30264, "ELEMENT_SET_NO": 999, "REV_AT_EPOCH": 96511, "BSTAR": 0.0018574931, "MEAN_MOTION_DOT": 3.26e-05, "MEAN_MOTION_DDOT": 0}, "tle": {"line1": "1 30264U 99025XZ  25343.42913694  .00003260  00000+0  18575-2 0  9993", "line2": "2 30264  98.9699  38.5792 0106898 296.7248  78.4008 14.07619125965116"}}, "geometry": {"type": "Point", "coordinates": [32.52442359865266, 35.26058084701029]}}, {"type": "Feature", "properties": {"norad_id": 30265, "name": "FENGYUN 1C DEB", "group": "fengyun-1c-debris", "lat": -53.284110785626524, "lon": -99.0096247333086, "alt_km": 722.0363549825433, "timestamp": "2025-12-09T18:55:17.506926+00:00", "meta": {"OBJECT_NAME": "FENGYUN 1C DEB", "OBJECT_ID": "1999-025YA", "EPOCH": "2025-12-09T06:37:15.108384", "MEAN_MOTION": 14.58503851, "ECCENTRICITY": 0.0028443, "INCLINATION": 98.6624, "RA_OF_ASC_NODE": 92.2514, "ARG_OF_PERICENTER": 23.947, "MEAN_ANOMALY": 40.8045, "EPHEMERIS_TYPE": 0, "CLASSIFICATION_TYPE": "U", "NORAD_CAT_ID": 30265, "ELEMENT_SET_NO": 999, "REV_AT_EPOCH": 98351, "BSTAR": 0.0031209, "MEAN_MOTION_DOT": 0.00014554, "MEAN_MOTION_DDOT": 0}, "tle": {"line1": "1 30265U 99025YA  25343.27586931  .00014554  00000+0  31209-2 0  9994", "line2": "2 30265  98.6624  92.2514 0028443  23.9470  40.8045 14.58503851983519"}}, "geometry": {"type": "Point", "coordinates": [-99.0096247333086, -53.284110785626524]}}, {"type": "Feature", "properties": {"norad_id": 30266, "name": "FENGYUN 1C DEB", "group": "fengyun-1c-debris", "lat": -11.655095792769107, "lon": 49.84250142694085, "alt_km": 841.8145190998521, "timestamp": "2025-12-09T18:55:17.506936+00:00", "meta": {"OBJECT_NAME": "FENGYUN 1C DEB", "OBJECT_ID": "1999-025YB", "EPOCH": "2025-12-09T10:35:19.852800", "MEAN_MOTION": 14.15058539, "ECCENTRICITY": 0.00829846, "INCLINATION": 99.0422, "RA_OF_ASC_NODE": 47.6084, "ARG_OF_PERICENTER": 75.3913, "MEAN_ANOMALY": 306.166, "EPHEMERIS_TYPE": 0, "CLASSIFICATION_TYPE": "U", "NORAD_CAT_ID": 30266, "ELEMENT_SET_NO": 999, "REV_AT_EPOCH": 96743, "BSTAR": 0.0017905242, "MEAN_MOTION_DOT": 3.543e-05, "MEAN_MOTION_DDOT": 0}, "tle": {"line1": "1 30266U 99025YB  25343.44120200  .00003543  00000+0  17905-2 0  9990", "line2": "2 30266  99.0422  47.6084 0082984  75.3913 306.1660 14.15058539967435"}}, "geometry": {"type": "Point", "coordinates": [49.84250142694085, -11.655095792769107]}}, {"type": "Feature", "properties": {"norad_id": 30267, "name": "FENGYUN 1C DEB", "group": "fengyun-1c-debris", "lat": 7.47994178464325, "lon": -123.89467344458043, "alt_km": 807.0159414704631, "timestamp": "2025-12-09T18:55:17.506946+00:00", "meta": {"OBJECT_NAME": "FENGYUN 1C DEB", "OBJECT_ID": "1999-025YC", "EPOCH": "2025-12-09T11:21:40.208256", "MEAN_MOTION": 14.23571199, "ECCENTRICITY": 0.00587737, "INCLINATION": 98.8493, "RA_OF_ASC_NODE": 54.6165, "ARG_OF_PERICENTER": 252.4211, "MEAN_ANOMALY": 107.0541, "EPHEMERIS_TYPE": 0, "CLASSIFICATION_TYPE": "U", "NORAD_CAT_ID": 30267, "ELEMENT_SET_NO": 999, "REV_AT_EPOCH": 97248, "BSTAR": 0.0024734452, "MEAN_MOTION_DOT": 5.692e-05, "MEAN_MOTION_DDOT": 0}, "tle": {"line1": "1 30267U 99025YC  25343.47338204  .00005692  00000+0  24734-2 0  9994", "line2": "2 30267  98.8493  54.6165 0058773 252.4211 107.0541 14.23571199972485"}}, "geometry": {"type": "Point", "coordinates": [-123.89467344458043, 7.47994178464325]}}, {"type": "Feature", "properties": {"norad_id": 30270, "name": "FENGYUN 1C DEB", "group": "fengyun-1c-debris", "lat": -65.61599468059472, "lon": 17.349948170569625, "alt_km": 865.2925371736028, "timestamp": "2025-12-09T18:55:17.506956+00:00", "meta": {"OBJECT_NAME": "FENGYUN 1C DEB", "OBJECT_ID": "1999-025YF", "EPOCH": "2025-12-09T11:29:30.810048", "MEAN_MOTION": 14.11268977, "ECCENTRICITY": 0.00072681, "INCLINATION": 98.7024, "RA_OF_ASC_NODE": 357.3014, "ARG_OF_PERICENTER": 168.1367, "MEAN_ANOMALY": 352.8072, "EPHEMERIS_TYPE": 0, "CLASSIFICATION_TYPE": "U", "NORAD_CAT_ID": 30270, "ELEMENT_SET_NO": 999, "REV_AT_EPOCH": 97315, "BSTAR": 0.00018976974, "MEAN_MOTION_DOT": 3e-06, "MEAN_MOTION_DDOT": 0}, "tle": {"line1": "1 30270U 99025YF  25343.47882882  .00000300  00000+0  18977-3 0  9998", "line2": "2 30270  98.7024 357.3014 0007268 168.1367 352.8072 14.11268977973150"}}, "geometry": {"type": "Point", "coordinates": [17.349948170569625, -65.61599468059472]}}]}